{"fetched_at":"2026-07-17T06:38:18.454Z","source":"https://celestrak.org/NORAD/elements/gp.php?NAME=HULIANWANG&FORMAT=JSON","constellation":"guowang","records":[{"OBJECT_NAME":"HULIANWANG DIGUI-156","OBJECT_ID":"2026-047B","EPOCH":"2026-07-16T16:35:15.132768","CLASSIFICATION_TYPE":"U","MEAN_MOTION":13.29326213,"ECCENTRICITY":0.000086,"INCLINATION":50.0048,"RA_OF_ASC_NODE":310.4966,"ARG_OF_PERICENTER":207.5727,"MEAN_ANOMALY":152.51,"EPHEMERIS_TYPE":0,"NORAD_CAT_ID":68130,"ELEMENT_SET_NO":999,"REV_AT_EPOCH":1698,"BSTAR":0.00007164,"MEAN_MOTION_DOT":-9.1e-7,"MEAN_MOTION_DDOT":0},{"OBJECT_NAME":"HULIANWANG DIGUI-157","OBJECT_ID":"2026-047C","EPOCH":"2026-07-16T16:23:14.885088","CLASSIFICATION_TYPE":"U","MEAN_MOTION":13.29325555,"ECCENTRICITY":0.0000867,"INCLINATION":50.002,"RA_OF_ASC_NODE":310.4237,"ARG_OF_PERICENTER":203.798,"MEAN_ANOMALY":156.2852,"EPHEMERIS_TYPE":0,"NORAD_CAT_ID":68131,"ELEMENT_SET_NO":999,"REV_AT_EPOCH":1699,"BSTAR":0.000076832,"MEAN_MOTION_DOT":-8.8e-7,"MEAN_MOTION_DDOT":0},{"OBJECT_NAME":"HULIANWANG DIGUI-158","OBJECT_ID":"2026-047D","EPOCH":"2026-07-16T16:11:10.608576","CLASSIFICATION_TYPE":"U","MEAN_MOTION":13.2932429,"ECCENTRICITY":0.0000958,"INCLINATION":50.0063,"RA_OF_ASC_NODE":310.4285,"ARG_OF_PERICENTER":203.248,"MEAN_ANOMALY":156.8349,"EPHEMERIS_TYPE":0,"NORAD_CAT_ID":68132,"ELEMENT_SET_NO":999,"REV_AT_EPOCH":1698,"BSTAR":0.000078368,"MEAN_MOTION_DOT":-8.8e-7,"MEAN_MOTION_DDOT":0},{"OBJECT_NAME":"HULIANWANG DIGUI-159","OBJECT_ID":"2026-047E","EPOCH":"2026-07-16T15:59:10.307328","CLASSIFICATION_TYPE":"U","MEAN_MOTION":13.2932612,"ECCENTRICITY":0.0001048,"INCLINATION":50.0031,"RA_OF_ASC_NODE":310.3528,"ARG_OF_PERICENTER":199.2989,"MEAN_ANOMALY":160.7844,"EPHEMERIS_TYPE":0,"NORAD_CAT_ID":68133,"ELEMENT_SET_NO":999,"REV_AT_EPOCH":1699,"BSTAR":0.000078309,"MEAN_MOTION_DOT":-8.8e-7,"MEAN_MOTION_DDOT":0},{"OBJECT_NAME":"HULIANWANG DIGUI-160","OBJECT_ID":"2026-047F","EPOCH":"2026-07-16T15:34:59.761056","CLASSIFICATION_TYPE":"U","MEAN_MOTION":13.29325873,"ECCENTRICITY":0.0001109,"INCLINATION":50.0091,"RA_OF_ASC_NODE":310.3268,"ARG_OF_PERICENTER":187.9972,"MEAN_ANOMALY":172.0882,"EPHEMERIS_TYPE":0,"NORAD_CAT_ID":68134,"ELEMENT_SET_NO":999,"REV_AT_EPOCH":1698,"BSTAR":0.000070279,"MEAN_MOTION_DOT":-9.1e-7,"MEAN_MOTION_DDOT":0},{"OBJECT_NAME":"HULIANWANG DIGUI-161","OBJECT_ID":"2026-047G","EPOCH":"2026-07-16T12:10:30.144576","CLASSIFICATION_TYPE":"U","MEAN_MOTION":13.29334513,"ECCENTRICITY":0.000093,"INCLINATION":50.011,"RA_OF_ASC_NODE":310.9303,"ARG_OF_PERICENTER":200.5662,"MEAN_ANOMALY":159.5173,"EPHEMERIS_TYPE":0,"NORAD_CAT_ID":68135,"ELEMENT_SET_NO":999,"REV_AT_EPOCH":1697,"BSTAR":0.000073044,"MEAN_MOTION_DOT":-9e-7,"MEAN_MOTION_DDOT":0},{"OBJECT_NAME":"HULIANWANG DIGUI-162","OBJECT_ID":"2026-047H","EPOCH":"2026-07-16T13:35:02.666976","CLASSIFICATION_TYPE":"U","MEAN_MOTION":13.29324265,"ECCENTRICITY":0.0000916,"INCLINATION":50.0081,"RA_OF_ASC_NODE":310.5444,"ARG_OF_PERICENTER":207.4686,"MEAN_ANOMALY":152.6137,"EPHEMERIS_TYPE":0,"NORAD_CAT_ID":68136,"ELEMENT_SET_NO":999,"REV_AT_EPOCH":1697,"BSTAR":0.000063991,"MEAN_MOTION_DOT":-9.4e-7,"MEAN_MOTION_DDOT":0},{"OBJECT_NAME":"HULIANWANG DIGUI-163","OBJECT_ID":"2026-047J","EPOCH":"2026-07-16T06:09:41.101344","CLASSIFICATION_TYPE":"U","MEAN_MOTION":13.29339093,"ECCENTRICITY":0.0000779,"INCLINATION":50.0082,"RA_OF_ASC_NODE":311.5813,"ARG_OF_PERICENTER":206.4884,"MEAN_ANOMALY":153.5948,"EPHEMERIS_TYPE":0,"NORAD_CAT_ID":68137,"ELEMENT_SET_NO":999,"REV_AT_EPOCH":1694,"BSTAR":0.000069226,"MEAN_MOTION_DOT":-9.2e-7,"MEAN_MOTION_DDOT":0},{"OBJECT_NAME":"HULIANWANG DIGUI-164","OBJECT_ID":"2026-076A","EPOCH":"2026-07-16T19:36:40.138272","CLASSIFICATION_TYPE":"U","MEAN_MOTION":13.24410737,"ECCENTRICITY":0.0002005,"INCLINATION":86.4946,"RA_OF_ASC_NODE":33.8702,"ARG_OF_PERICENTER":78.4623,"MEAN_ANOMALY":281.6736,"EPHEMERIS_TYPE":0,"NORAD_CAT_ID":68656,"ELEMENT_SET_NO":999,"REV_AT_EPOCH":1329,"BSTAR":0.000016809,"MEAN_MOTION_DOT":2.2e-7,"MEAN_MOTION_DDOT":0},{"OBJECT_NAME":"HULIANWANG DIGUI-165","OBJECT_ID":"2026-076B","EPOCH":"2026-07-16T19:25:48.238176","CLASSIFICATION_TYPE":"U","MEAN_MOTION":13.24413339,"ECCENTRICITY":0.000215,"INCLINATION":86.4965,"RA_OF_ASC_NODE":33.8898,"ARG_OF_PERICENTER":83.9902,"MEAN_ANOMALY":276.1477,"EPHEMERIS_TYPE":0,"NORAD_CAT_ID":68657,"ELEMENT_SET_NO":999,"REV_AT_EPOCH":1329,"BSTAR":-0.00004736,"MEAN_MOTION_DOT":-6e-8,"MEAN_MOTION_DDOT":0},{"OBJECT_NAME":"HULIANWANG DIGUI-166","OBJECT_ID":"2026-076C","EPOCH":"2026-07-16T21:03:48.292128","CLASSIFICATION_TYPE":"U","MEAN_MOTION":13.24411414,"ECCENTRICITY":0.0002113,"INCLINATION":86.4906,"RA_OF_ASC_NODE":33.7973,"ARG_OF_PERICENTER":84.1364,"MEAN_ANOMALY":276.0011,"EPHEMERIS_TYPE":0,"NORAD_CAT_ID":68658,"ELEMENT_SET_NO":999,"REV_AT_EPOCH":1330,"BSTAR":-0.00002253,"MEAN_MOTION_DOT":5e-8,"MEAN_MOTION_DDOT":0},{"OBJECT_NAME":"HULIANWANG DIGUI-167","OBJECT_ID":"2026-076D","EPOCH":"2026-07-16T20:52:49.684800","CLASSIFICATION_TYPE":"U","MEAN_MOTION":13.244135,"ECCENTRICITY":0.0002105,"INCLINATION":86.4961,"RA_OF_ASC_NODE":33.854,"ARG_OF_PERICENTER":84.0697,"MEAN_ANOMALY":276.0677,"EPHEMERIS_TYPE":0,"NORAD_CAT_ID":68659,"ELEMENT_SET_NO":999,"REV_AT_EPOCH":1330,"BSTAR":-0.000026014,"MEAN_MOTION_DOT":3e-8,"MEAN_MOTION_DDOT":0},{"OBJECT_NAME":"HULIANWANG DIGUI-168","OBJECT_ID":"2026-076E","EPOCH":"2026-07-16T18:53:10.065120","CLASSIFICATION_TYPE":"U","MEAN_MOTION":13.2441167,"ECCENTRICITY":0.000214,"INCLINATION":86.4942,"RA_OF_ASC_NODE":33.855,"ARG_OF_PERICENTER":84.5019,"MEAN_ANOMALY":275.6359,"EPHEMERIS_TYPE":0,"NORAD_CAT_ID":68660,"ELEMENT_SET_NO":999,"REV_AT_EPOCH":1328,"BSTAR":-0.000040288,"MEAN_MOTION_DOT":-3e-8,"MEAN_MOTION_DDOT":0}]}
