HULIANWANG DIGUI-156    
1 68130U 26047B   26197.69114737 -.00000091  00000+0  71640-4 0  9992
2 68130  50.0048 310.4966 0000860 207.5727 152.5100 13.29326213 16980
HULIANWANG DIGUI-157    
1 68131U 26047C   26197.68281117 -.00000088  00000+0  76832-4 0  9993
2 68131  50.0020 310.4237 0000867 203.7980 156.2852 13.29325555 16992
HULIANWANG DIGUI-158    
1 68132U 26047D   26197.67442834 -.00000088  00000+0  78368-4 0  9994
2 68132  50.0063 310.4285 0000958 203.2480 156.8349 13.29324290 16985
HULIANWANG DIGUI-159    
1 68133U 26047E   26197.66609152 -.00000088  00000+0  78309-4 0  9997
2 68133  50.0031 310.3528 0001048 199.2989 160.7844 13.29326120 16998
HULIANWANG DIGUI-160    
1 68134U 26047F   26197.64930279 -.00000091  00000+0  70279-4 0  9995
2 68134  50.0091 310.3268 0001109 187.9972 172.0882 13.29325873 16981
HULIANWANG DIGUI-161    
1 68135U 26047G   26197.50729334 -.00000090  00000+0  73044-4 0  9991
2 68135  50.0110 310.9303 0000930 200.5662 159.5173 13.29334513 16972
HULIANWANG DIGUI-162    
1 68136U 26047H   26197.56600309 -.00000094  00000+0  63991-4 0  9992
2 68136  50.0081 310.5444 0000916 207.4686 152.6137 13.29324265 16975
HULIANWANG DIGUI-163    
1 68137U 26047J   26197.25672571 -.00000092  00000+0  69226-4 0  9994
2 68137  50.0082 311.5813 0000779 206.4884 153.5948 13.29339093 16946
HULIANWANG DIGUI-164    
1 68656U 26076A   26197.81713123  .00000022  00000+0  16809-4 0  9994
2 68656  86.4946  33.8702 0002005  78.4623 281.6736 13.24410737 13290
HULIANWANG DIGUI-165    
1 68657U 26076B   26197.80958609 -.00000006  00000+0 -47360-4 0  9994
2 68657  86.4965  33.8898 0002150  83.9902 276.1477 13.24413339 13292
HULIANWANG DIGUI-166    
1 68658U 26076C   26197.87764227  .00000005  00000+0 -22530-4 0  9993
2 68658  86.4906  33.7973 0002113  84.1364 276.0011 13.24411414 13302
HULIANWANG DIGUI-167    
1 68659U 26076D   26197.87001950  .00000003  00000+0 -26014-4 0  9990
2 68659  86.4961  33.8540 0002105  84.0697 276.0677 13.24413500 13300
HULIANWANG DIGUI-168    
1 68660U 26076E   26197.78692205 -.00000003  00000+0 -40288-4 0  9991
2 68660  86.4942  33.8550 0002140  84.5019 275.6359 13.24411670 13289
